{
  "type": "FeatureCollection",
  "features": [
    {
      "type": "Feature",
      "properties": {
        "norad_id": 65943,
        "name": "E-KAGAKU-1",
        "group": "stations",
        "lat": -50.09604671547179,
        "lon": 114.2202090163343,
        "alt_km": 400.0871538656611,
        "timestamp": "2025-12-03T15:48:01.939032+00:00",
        "meta_object_name": "E-KAGAKU-1",
        "meta_object_id": "1998-067XQ",
        "meta_epoch": "2025-12-02T21:39:34.941600",
        "meta_mean_motion": 15.57714998,
        "meta_eccentricity": 0.00035202,
        "meta_inclination": 51.6296,
        "meta_ra_of_asc_node": 189.358,
        "meta_arg_of_pericenter": 147.4331,
        "meta_mean_anomaly": 212.6879,
        "meta_ephemeris_type": 0,
        "meta_classification_type": "U",
        "meta_norad_cat_id": 65943,
        "meta_element_set_no": 999,
        "meta_rev_at_epoch": 832,
        "meta_bstar": 0.00096701912,
        "meta_mean_motion_dot": 0.00073283,
        "meta_mean_motion_ddot": 0,
        "tle_line1": "1 65943U 98067XQ  25336.90248775  .00073283  00000+0  96702-3 0  9997",
        "tle_line2": "2 65943  51.6296 189.3580 0003520 147.4331 212.6879 15.57714998  8329"
      },
      "geometry": {
        "type": "Point",
        "coordinates": [
          114.2202090163343,
          -50.09604671547179
        ]
      }
    },
    {
      "type": "Feature",
      "properties": {
        "norad_id": 66052,
        "name": "HRC MONOBLOCK CAMERA",
        "group": "stations",
        "lat": 46.405188555544385,
        "lon": -116.91970542138996,
        "alt_km": 400.40756648033675,
        "timestamp": "2025-12-03T15:48:01.939042+00:00",
        "meta_object_name": "HRC MONOBLOCK CAMERA",
        "meta_object_id": "1998-067XR",
        "meta_epoch": "2025-12-03T07:47:25.348416",
        "meta_mean_motion": 15.53212477,
        "meta_eccentricity": 0.00043886,
        "meta_inclination": 51.6293,
        "meta_ra_of_asc_node": 188.4201,
        "meta_arg_of_pericenter": 146.7187,
        "meta_mean_anomaly": 213.408,
        "meta_ephemeris_type": 0,
        "meta_classification_type": "U",
        "meta_norad_cat_id": 66052,
        "meta_element_set_no": 999,
        "meta_rev_at_epoch": 737,
        "meta_bstar": 0.0006296975,
        "meta_mean_motion_dot": 0.00040058,
        "meta_mean_motion_ddot": 0,
        "tle_line1": "1 66052U 98067XR  25337.32459894  .00040058  00000+0  62970-3 0  9996",
        "tle_line2": "2 66052  51.6293 188.4201 0004388 146.7187 213.4080 15.53212477  7370"
      },
      "geometry": {
        "type": "Point",
        "coordinates": [
          -116.91970542138996,
          46.405188555544385
        ]
      }
    },
    {
      "type": "Feature",
      "properties": {
        "norad_id": 66174,
        "name": "HTV-X1",
        "group": "stations",
        "lat": 50.412919509377645,
        "lon": -65.92560252278989,
        "alt_km": 412.3415764468764,
        "timestamp": "2025-12-03T15:48:01.939055+00:00",
        "meta_object_name": "HTV-X1",
        "meta_object_id": "2025-241A",
        "meta_epoch": "2025-12-03T01:26:08.635488",
        "meta_mean_motion": 15.49262423,
        "meta_eccentricity": 0.00036204,
        "meta_inclination": 51.6309,
        "meta_ra_of_asc_node": 190.4017,
        "meta_arg_of_pericenter": 198.708,
        "meta_mean_anomaly": 161.3776,
        "meta_ephemeris_type": 0,
        "meta_classification_type": "U",
        "meta_norad_cat_id": 66174,
        "meta_element_set_no": 999,
        "meta_rev_at_epoch": 51,
        "meta_bstar": 0.00021764811,
        "meta_mean_motion_dot": 0.0001167,
        "meta_mean_motion_ddot": 0,
        "tle_line1": "1 66174U 25241A   25337.05982217  .00011670  00000+0  21765-3 0  9990",
        "tle_line2": "2 66174  51.6309 190.4017 0003620 198.7080 161.3776 15.49262423   511"
      },
      "geometry": {
        "type": "Point",
        "coordinates": [
          -65.92560252278989,
          50.412919509377645
        ]
      }
    },
    {
      "type": "Feature",
      "properties": {
        "norad_id": 66515,
        "name": "SZ-21 MODULE",
        "group": "stations",
        "lat": 19.925167945998258,
        "lon": 95.64237982943149,
        "alt_km": 383.0309467215393,
        "timestamp": "2025-12-03T15:48:01.939065+00:00",
        "meta_object_name": "SZ-21 MODULE",
        "meta_object_id": "2025-246C",
        "meta_epoch": "2025-12-03T07:59:41.918784",
        "meta_mean_motion": 15.61790567,
        "meta_eccentricity": 0.00058316,
        "meta_inclination": 41.4771,
        "meta_ra_of_asc_node": 73.3983,
        "meta_arg_of_pericenter": 205.8085,
        "meta_mean_anomaly": 154.2464,
        "meta_ephemeris_type": 0,
        "meta_classification_type": "U",
        "meta_norad_cat_id": 66515,
        "meta_element_set_no": 999,
        "meta_rev_at_epoch": 297,
        "meta_bstar": 0.00036812116,
        "meta_mean_motion_dot": 0.0003262,
        "meta_mean_motion_ddot": 0,
        "tle_line1": "1 66515U 25246C   25337.33312406  .00032620  00000+0  36812-3 0  9999",
        "tle_line2": "2 66515  41.4771  73.3983 0005831 205.8085 154.2464 15.61790567  2978"
      },
      "geometry": {
        "type": "Point",
        "coordinates": [
          95.64237982943149,
          19.925167945998258
        ]
      }
    },
    {
      "type": "Feature",
      "properties": {
        "norad_id": 66645,
        "name": "SHENZHOU-22",
        "group": "stations",
        "lat": -30.38228318803819,
        "lon": -66.58622046299439,
        "alt_km": 394.4929817928023,
        "timestamp": "2025-12-03T15:48:01.939074+00:00",
        "meta_object_name": "SHENZHOU-22",
        "meta_object_id": "2025-272A",
        "meta_epoch": "2025-12-03T08:40:01.753824",
        "meta_mean_motion": 15.58580261,
        "meta_eccentricity": 0.00100709,
        "meta_inclination": 41.4677,
        "meta_ra_of_asc_node": 73.6192,
        "meta_arg_of_pericenter": 319.5464,
        "meta_mean_anomaly": 40.4624,
        "meta_ephemeris_type": 0,
        "meta_classification_type": "U",
        "meta_norad_cat_id": 66645,
        "meta_element_set_no": 999,
        "meta_rev_at_epoch": 26257,
        "meta_bstar": 0.00034171532,
        "meta_mean_motion_dot": 0.00026743,
        "meta_mean_motion_ddot": 0,
        "tle_line1": "1 66645U 25272A   25337.36113141  .00026743  00000+0  34172-3 0  9996",
        "tle_line2": "2 66645  41.4677  73.6192 0010070 319.5464  40.4624 15.58580261262579"
      },
      "geometry": {
        "type": "Point",
        "coordinates": [
          -66.58622046299439,
          -30.38228318803819
        ]
      }
    },
    {
      "type": "Feature",
      "properties": {
        "norad_id": 66646,
        "name": "CZ-2F R/B",
        "group": "stations",
        "lat": -8.138349961603721,
        "lon": -102.52160210278072,
        "alt_km": 183.94985999964683,
        "timestamp": "2025-12-03T15:48:01.939105+00:00",
        "meta_object_name": "CZ-2F R/B",
        "meta_object_id": "2025-272B",
        "meta_epoch": "2025-11-26T11:17:54.506400",
        "meta_mean_motion": 16.01945612,
        "meta_eccentricity": 0.01210796,
        "meta_inclination": 41.4431,
        "meta_ra_of_asc_node": 114.9009,
        "meta_arg_of_pericenter": 133.7676,
        "meta_mean_anomaly": 227.3272,
        "meta_ephemeris_type": 0,
        "meta_classification_type": "U",
        "meta_norad_cat_id": 66646,
        "meta_element_set_no": 999,
        "meta_rev_at_epoch": 21,
        "meta_bstar": 0.00029319366,
        "meta_mean_motion_dot": 0.00449059,
        "meta_mean_motion_ddot": 7.567612e-06,
        "tle_line1": "1 66646U 25272B   25330.47076975  .00449059  75676-5  29319-3 0  9998",
        "tle_line2": "2 66646  41.4431 114.9009 0121079 133.7676 227.3272 16.01945612   217"
      },
      "geometry": {
        "type": "Point",
        "coordinates": [
          -102.52160210278072,
          -8.138349961603721
        ]
      }
    },
    {
      "type": "Feature",
      "properties": {
        "norad_id": 66664,
        "name": "SOYUZ-MS 28",
        "group": "stations",
        "lat": 50.412918536780914,
        "lon": -65.92559589882016,
        "alt_km": 412.3415763990897,
        "timestamp": "2025-12-03T15:48:01.939122+00:00",
        "meta_object_name": "SOYUZ-MS 28",
        "meta_object_id": "2025-275A",
        "meta_epoch": "2025-12-03T01:26:08.635488",
        "meta_mean_motion": 15.49262423,
        "meta_eccentricity": 0.00036204,
        "meta_inclination": 51.6309,
        "meta_ra_of_asc_node": 190.4017,
        "meta_arg_of_pericenter": 198.708,
        "meta_mean_anomaly": 161.3776,
        "meta_ephemeris_type": 0,
        "meta_classification_type": "U",
        "meta_norad_cat_id": 66664,
        "meta_element_set_no": 999,
        "meta_rev_at_epoch": 94,
        "meta_bstar": 0.00021764811,
        "meta_mean_motion_dot": 0.0001167,
        "meta_mean_motion_ddot": 0,
        "tle_line1": "1 66664U 25275A   25337.05982217  .00011670  00000+0  21765-3 0  9991",
        "tle_line2": "2 66664  51.6309 190.4017 0003620 198.7080 161.3776 15.49262423   942"
      },
      "geometry": {
        "type": "Point",
        "coordinates": [
          -65.92559589882016,
          50.412918536780914
        ]
      }
    }
  ]
}